<?xml version="1.0" encoding="UTF-8"?>
<ndm xmlns:xsi="http://www.w3.org/2001/XMLSchema-instance" xsi:noNamespaceSchemaLocation="https://sanaregistry.org/r/ndmxml_unqualified/ndmxml-2.0.0-master-2.0.xsd">
<omm id="CCSDS_OMM_VERS" version="2.0">
<header><CREATION_DATE/><ORIGINATOR/></header><body><segment><metadata><OBJECT_NAME>IRIDIUM 171</OBJECT_NAME><OBJECT_ID>2019-002H</OBJECT_ID><CENTER_NAME>EARTH</CENTER_NAME><REF_FRAME>TEME</REF_FRAME><TIME_SYSTEM>UTC</TIME_SYSTEM><MEAN_ELEMENT_THEORY>SGP4</MEAN_ELEMENT_THEORY></metadata><data><meanElements><EPOCH>2024-09-06T14:14:10.210272</EPOCH><MEAN_MOTION>14.34222020</MEAN_MOTION><ECCENTRICITY>.0002292</ECCENTRICITY><INCLINATION>86.3915</INCLINATION><RA_OF_ASC_NODE>264.8316</RA_OF_ASC_NODE><ARG_OF_PERICENTER>98.0335</ARG_OF_PERICENTER><MEAN_ANOMALY>262.1121</MEAN_ANOMALY></meanElements><tleParameters><EPHEMERIS_TYPE>0</EPHEMERIS_TYPE><CLASSIFICATION_TYPE>U</CLASSIFICATION_TYPE><NORAD_CAT_ID>43929</NORAD_CAT_ID><ELEMENT_SET_NO>999</ELEMENT_SET_NO><REV_AT_EPOCH>29599</REV_AT_EPOCH><BSTAR>.13419E-3</BSTAR><MEAN_MOTION_DOT>.396E-5</MEAN_MOTION_DOT><MEAN_MOTION_DDOT>0</MEAN_MOTION_DDOT></tleParameters></data></segment></body></omm>
<omm id="CCSDS_OMM_VERS" version="2.0">
<header><CREATION_DATE/><ORIGINATOR/></header><body><segment><metadata><OBJECT_NAME>IRIDIUM 170</OBJECT_NAME><OBJECT_ID>2019-002J</OBJECT_ID><CENTER_NAME>EARTH</CENTER_NAME><REF_FRAME>TEME</REF_FRAME><TIME_SYSTEM>UTC</TIME_SYSTEM><MEAN_ELEMENT_THEORY>SGP4</MEAN_ELEMENT_THEORY></metadata><data><meanElements><EPOCH>2024-09-06T13:11:00.525696</EPOCH><MEAN_MOTION>14.72253632</MEAN_MOTION><ECCENTRICITY>.000253</ECCENTRICITY><INCLINATION>86.6038</INCLINATION><RA_OF_ASC_NODE>264.6552</RA_OF_ASC_NODE><ARG_OF_PERICENTER>90.9468</ARG_OF_PERICENTER><MEAN_ANOMALY>269.2039</MEAN_ANOMALY></meanElements><tleParameters><EPHEMERIS_TYPE>0</EPHEMERIS_TYPE><CLASSIFICATION_TYPE>U</CLASSIFICATION_TYPE><NORAD_CAT_ID>43930</NORAD_CAT_ID><ELEMENT_SET_NO>999</ELEMENT_SET_NO><REV_AT_EPOCH>30382</REV_AT_EPOCH><BSTAR>.17184E-3</BSTAR><MEAN_MOTION_DOT>.1108E-4</MEAN_MOTION_DOT><MEAN_MOTION_DDOT>0</MEAN_MOTION_DDOT></tleParameters></data></segment></body></omm>
<omm id="CCSDS_OMM_VERS" version="2.0">
<header><CREATION_DATE/><ORIGINATOR/></header><body><segment><metadata><OBJECT_NAME>IRIDIUM 167</OBJECT_NAME><OBJECT_ID>2019-002K</OBJECT_ID><CENTER_NAME>EARTH</CENTER_NAME><REF_FRAME>TEME</REF_FRAME><TIME_SYSTEM>UTC</TIME_SYSTEM><MEAN_ELEMENT_THEORY>SGP4</MEAN_ELEMENT_THEORY></metadata><data><meanElements><EPOCH>2024-09-06T14:05:02.910336</EPOCH><MEAN_MOTION>14.34218232</MEAN_MOTION><ECCENTRICITY>.0002195</ECCENTRICITY><INCLINATION>86.3907</INCLINATION><RA_OF_ASC_NODE>264.6161</RA_OF_ASC_NODE><ARG_OF_PERICENTER>94.7223</ARG_OF_PERICENTER><MEAN_ANOMALY>265.4223</MEAN_ANOMALY></meanElements><tleParameters><EPHEMERIS_TYPE>0</EPHEMERIS_TYPE><CLASSIFICATION_TYPE>U</CLASSIFICATION_TYPE><NORAD_CAT_ID>43931</NORAD_CAT_ID><ELEMENT_SET_NO>999</ELEMENT_SET_NO><REV_AT_EPOCH>29599</REV_AT_EPOCH><BSTAR>.35329E-4</BSTAR><MEAN_MOTION_DOT>.119E-5</MEAN_MOTION_DOT><MEAN_MOTION_DDOT>0</MEAN_MOTION_DDOT></tleParameters></data></segment></body></omm>
<omm id="CCSDS_OMM_VERS" version="2.0">
<header><CREATION_DATE/><ORIGINATOR/></header><body><segment><metadata><OBJECT_NAME>IRIDIUM 181</OBJECT_NAME><OBJECT_ID>2023-068S</OBJECT_ID><CENTER_NAME>EARTH</CENTER_NAME><REF_FRAME>TEME</REF_FRAME><TIME_SYSTEM>UTC</TIME_SYSTEM><MEAN_ELEMENT_THEORY>SGP4</MEAN_ELEMENT_THEORY></metadata><data><meanElements><EPOCH>2024-09-07T10:55:26.223168</EPOCH><MEAN_MOTION>14.43579970</MEAN_MOTION><ECCENTRICITY>.0002004</ECCENTRICITY><INCLINATION>86.8662</INCLINATION><RA_OF_ASC_NODE>322.0121</RA_OF_ASC_NODE><ARG_OF_PERICENTER>103.4678</ARG_OF_PERICENTER><MEAN_ANOMALY>256.6747</MEAN_ANOMALY></meanElements><tleParameters><EPHEMERIS_TYPE>0</EPHEMERIS_TYPE><CLASSIFICATION_TYPE>U</CLASSIFICATION_TYPE><NORAD_CAT_ID>56726</NORAD_CAT_ID><ELEMENT_SET_NO>999</ELEMENT_SET_NO><REV_AT_EPOCH>6900</REV_AT_EPOCH><BSTAR>.22575E-3</BSTAR><MEAN_MOTION_DOT>.784E-5</MEAN_MOTION_DOT><MEAN_MOTION_DDOT>0</MEAN_MOTION_DDOT></tleParameters></data></segment></body></omm>
<omm id="CCSDS_OMM_VERS" version="2.0">
<header><CREATION_DATE/><ORIGINATOR/></header><body><segment><metadata><OBJECT_NAME>IRIDIUM 177</OBJECT_NAME><OBJECT_ID>2023-068T</OBJECT_ID><CENTER_NAME>EARTH</CENTER_NAME><REF_FRAME>TEME</REF_FRAME><TIME_SYSTEM>UTC</TIME_SYSTEM><MEAN_ELEMENT_THEORY>SGP4</MEAN_ELEMENT_THEORY></metadata><data><meanElements><EPOCH>2024-09-07T11:54:37.442016</EPOCH><MEAN_MOTION>14.80233344</MEAN_MOTION><ECCENTRICITY>.0001761</ECCENTRICITY><INCLINATION>86.1922</INCLINATION><RA_OF_ASC_NODE>276.2738</RA_OF_ASC_NODE><ARG_OF_PERICENTER>89.5589</ARG_OF_PERICENTER><MEAN_ANOMALY>270.5833</MEAN_ANOMALY></meanElements><tleParameters><EPHEMERIS_TYPE>0</EPHEMERIS_TYPE><CLASSIFICATION_TYPE>U</CLASSIFICATION_TYPE><NORAD_CAT_ID>56727</NORAD_CAT_ID><ELEMENT_SET_NO>999</ELEMENT_SET_NO><REV_AT_EPOCH>7055</REV_AT_EPOCH><BSTAR>.30273E-3</BSTAR><MEAN_MOTION_DOT>.2327E-4</MEAN_MOTION_DOT><MEAN_MOTION_DDOT>0</MEAN_MOTION_DDOT></tleParameters></data></segment></body></omm>
<omm id="CCSDS_OMM_VERS" version="2.0">
<header><CREATION_DATE/><ORIGINATOR/></header><body><segment><metadata><OBJECT_NAME>IRIDIUM 174</OBJECT_NAME><OBJECT_ID>2023-068U</OBJECT_ID><CENTER_NAME>EARTH</CENTER_NAME><REF_FRAME>TEME</REF_FRAME><TIME_SYSTEM>UTC</TIME_SYSTEM><MEAN_ELEMENT_THEORY>SGP4</MEAN_ELEMENT_THEORY></metadata><data><meanElements><EPOCH>2024-09-06T14:41:14.748864</EPOCH><MEAN_MOTION>14.80233018</MEAN_MOTION><ECCENTRICITY>.0001809</ECCENTRICITY><INCLINATION>86.1928</INCLINATION><RA_OF_ASC_NODE>276.8040</RA_OF_ASC_NODE><ARG_OF_PERICENTER>98.7913</ARG_OF_PERICENTER><MEAN_ANOMALY>261.3513</MEAN_ANOMALY></meanElements><tleParameters><EPHEMERIS_TYPE>0</EPHEMERIS_TYPE><CLASSIFICATION_TYPE>U</CLASSIFICATION_TYPE><NORAD_CAT_ID>56728</NORAD_CAT_ID><ELEMENT_SET_NO>999</ELEMENT_SET_NO><REV_AT_EPOCH>7042</REV_AT_EPOCH><BSTAR>.19087E-3</BSTAR><MEAN_MOTION_DOT>.1477E-4</MEAN_MOTION_DOT><MEAN_MOTION_DDOT>0</MEAN_MOTION_DDOT></tleParameters></data></segment></body></omm>
<omm id="CCSDS_OMM_VERS" version="2.0">
<header><CREATION_DATE/><ORIGINATOR/></header><body><segment><metadata><OBJECT_NAME>IRIDIUM 178</OBJECT_NAME><OBJECT_ID>2023-068V</OBJECT_ID><CENTER_NAME>EARTH</CENTER_NAME><REF_FRAME>TEME</REF_FRAME><TIME_SYSTEM>UTC</TIME_SYSTEM><MEAN_ELEMENT_THEORY>SGP4</MEAN_ELEMENT_THEORY></metadata><data><meanElements><EPOCH>2024-09-07T05:09:43.225632</EPOCH><MEAN_MOTION>14.80237019</MEAN_MOTION><ECCENTRICITY>.0002277</ECCENTRICITY><INCLINATION>86.5750</INCLINATION><RA_OF_ASC_NODE>297.8827</RA_OF_ASC_NODE><ARG_OF_PERICENTER>101.9158</ARG_OF_PERICENTER><MEAN_ANOMALY>258.2319</MEAN_ANOMALY></meanElements><tleParameters><EPHEMERIS_TYPE>0</EPHEMERIS_TYPE><CLASSIFICATION_TYPE>U</CLASSIFICATION_TYPE><NORAD_CAT_ID>56729</NORAD_CAT_ID><ELEMENT_SET_NO>999</ELEMENT_SET_NO><REV_AT_EPOCH>7051</REV_AT_EPOCH><BSTAR>.64132E-3</BSTAR><MEAN_MOTION_DOT>.4901E-4</MEAN_MOTION_DOT><MEAN_MOTION_DDOT>0</MEAN_MOTION_DDOT></tleParameters></data></segment></body></omm>
<omm id="CCSDS_OMM_VERS" version="2.0">
<header><CREATION_DATE/><ORIGINATOR/></header><body><segment><metadata><OBJECT_NAME>IRIDIUM 179</OBJECT_NAME><OBJECT_ID>2023-068W</OBJECT_ID><CENTER_NAME>EARTH</CENTER_NAME><REF_FRAME>TEME</REF_FRAME><TIME_SYSTEM>UTC</TIME_SYSTEM><MEAN_ELEMENT_THEORY>SGP4</MEAN_ELEMENT_THEORY></metadata><data><meanElements><EPOCH>2024-09-07T05:02:10.074912</EPOCH><MEAN_MOTION>14.80251140</MEAN_MOTION><ECCENTRICITY>.0002012</ECCENTRICITY><INCLINATION>86.6769</INCLINATION><RA_OF_ASC_NODE>303.0562</RA_OF_ASC_NODE><ARG_OF_PERICENTER>90.6524</ARG_OF_PERICENTER><MEAN_ANOMALY>269.4928</MEAN_ANOMALY></meanElements><tleParameters><EPHEMERIS_TYPE>0</EPHEMERIS_TYPE><CLASSIFICATION_TYPE>U</CLASSIFICATION_TYPE><NORAD_CAT_ID>56730</NORAD_CAT_ID><ELEMENT_SET_NO>999</ELEMENT_SET_NO><REV_AT_EPOCH>7051</REV_AT_EPOCH><BSTAR>.6281E-3</BSTAR><MEAN_MOTION_DOT>.4802E-4</MEAN_MOTION_DOT><MEAN_MOTION_DDOT>0</MEAN_MOTION_DDOT></tleParameters></data></segment></body></omm>
</ndm>
