IRIDIUM 171             
1 43929U 19002H   24250.59317373  .00000396  00000+0  13419-3 0  9998
2 43929  86.3915 264.8316 0002292  98.0335 262.1121 14.34222020295993
IRIDIUM 170             
1 43930U 19002J   24250.54931164  .00001108  00000+0  17184-3 0  9990
2 43930  86.6038 264.6552 0002530  90.9468 269.2039 14.72253632303820
IRIDIUM 167             
1 43931U 19002K   24250.58683924  .00000119  00000+0  35329-4 0  9996
2 43931  86.3907 264.6161 0002195  94.7223 265.4223 14.34218232295993
IRIDIUM 181             
1 56726U 23068S   24251.45516462  .00000784  00000+0  22575-3 0  9994
2 56726  86.8662 322.0121 0002004 103.4678 256.6747 14.43579970 69001
IRIDIUM 177             
1 56727U 23068T   24251.49626669  .00002327  00000+0  30273-3 0  9999
2 56727  86.1922 276.2738 0001761  89.5589 270.5833 14.80233344 70558
IRIDIUM 174             
1 56728U 23068U   24250.61197626  .00001477  00000+0  19087-3 0  9994
2 56728  86.1928 276.8040 0001809  98.7913 261.3513 14.80233018 70420
IRIDIUM 178             
1 56729U 23068V   24251.21508363  .00004901  00000+0  64132-3 0  9992
2 56729  86.5750 297.8827 0002277 101.9158 258.2319 14.80237019 70516
IRIDIUM 179             
1 56730U 23068W   24251.20983883  .00004802  00000+0  62810-3 0  9998
2 56730  86.6769 303.0562 0002012  90.6524 269.4928 14.80251140 70514
